{"type": "FeatureCollection", "features": [ {"type": "Feature", "properties": {"norad_id": 66758, "name": "TRANSPORTER-15CW", "group": "last-30-days", "lat": 30.24509944125189, "lon": -102.25493656336869, "alt_km": 508.9082091356049, "timestamp": "2025-12-27T20:30:58.022246+00:00", "meta": {"OBJECT_NAME": "TRANSPORTER-15CW", "OBJECT_ID": "2025-276CW", "EPOCH": "2025-12-27T10:22:08.604192", "MEAN_MOTION": 15.18137154, "ECCENTRICITY": 0.0001577, "INCLINATION": 97.4386, "RA_OF_ASC_NODE": 72.9604, "ARG_OF_PERICENTER": 134.5628, "MEAN_ANOMALY": 225.5735, "EPHEMERIS_TYPE": 0, "CLASSIFICATION_TYPE": "U", "NORAD_CAT_ID": 66758, "ELEMENT_SET_NO": 999, "REV_AT_EPOCH": 435, "BSTAR": 0.00053112, "MEAN_MOTION_DOT": 0.00010782, "MEAN_MOTION_DDOT": 0}, "tle": {"line1": "1 66758U 25276CW  25361.43204403  .00010782  00000+0  53112-3 0  9993", "line2": "2 66758  97.4386  72.9604 0001577 134.5628 225.5735 15.18137154  4355"}}, "geometry": {"type": "Point", "coordinates": [-102.25493656336869, 30.24509944125189]}}, {"type": "Feature", "properties": {"norad_id": 66759, "name": "TRANSPORTER-15CX", "group": "last-30-days", "lat": 18.774025571062573, "lon": -104.07830178621032, "alt_km": 510.5247293819748, "timestamp": "2025-12-27T20:30:58.022257+00:00", "meta": {"OBJECT_NAME": "TRANSPORTER-15CX", "OBJECT_ID": "2025-276CX", "EPOCH": "2025-12-27T10:19:09.045984", "MEAN_MOTION": 15.18281729, "ECCENTRICITY": 0.0001404, "INCLINATION": 97.4375, "RA_OF_ASC_NODE": 72.9589, "ARG_OF_PERICENTER": 130.0005, "MEAN_ANOMALY": 230.1353, "EPHEMERIS_TYPE": 0, "CLASSIFICATION_TYPE": "U", "NORAD_CAT_ID": 66759, "ELEMENT_SET_NO": 999, "REV_AT_EPOCH": 435, "BSTAR": 0.0007522, "MEAN_MOTION_DOT": 0.00015371, "MEAN_MOTION_DDOT": 0}, "tle": {"line1": "1 66759U 25276CX  25361.42996581  .00015371  00000+0  75220-3 0  9991", "line2": "2 66759  97.4375  72.9589 0001404 130.0005 230.1353 15.18281729  4351"}}, "geometry": {"type": "Point", "coordinates": [-104.07830178621032, 18.774025571062573]}}, {"type": "Feature", "properties": {"norad_id": 66760, "name": "TRANSPORTER-15CY", "group": "last-30-days", "lat": 17.26800990659021, "lon": -104.28896442329567, "alt_km": 510.93578245079607, "timestamp": "2025-12-27T20:30:58.022274+00:00", "meta": {"OBJECT_NAME": "TRANSPORTER-15CY", "OBJECT_ID": "2025-276CY", "EPOCH": "2025-12-27T11:53:38.779008", "MEAN_MOTION": 15.18250101, "ECCENTRICITY": 0.0001734, "INCLINATION": 97.439, "RA_OF_ASC_NODE": 73.03, "ARG_OF_PERICENTER": 112.7681, "MEAN_ANOMALY": 247.3737, "EPHEMERIS_TYPE": 0, "CLASSIFICATION_TYPE": "U", "NORAD_CAT_ID": 66760, "ELEMENT_SET_NO": 999, "REV_AT_EPOCH": 436, "BSTAR": 0.00056198, "MEAN_MOTION_DOT": 0.00011451, "MEAN_MOTION_DDOT": 0}, "tle": {"line1": "1 66760U 25276CY  25361.49558772  .00011451  00000+0  56198-3 0  9994", "line2": "2 66760  97.4390  73.0300 0001734 112.7681 247.3737 15.18250101  4363"}}, "geometry": {"type": "Point", "coordinates": [-104.28896442329567, 17.26800990659021]}}, {"type": "Feature", "properties": {"norad_id": 66761, "name": "TRANSPORTER-15CZ", "group": "last-30-days", "lat": -1.9330461521833584, "lon": -106.86152205316547, "alt_km": 512.882676257238, "timestamp": "2025-12-27T20:30:58.022284+00:00", "meta": {"OBJECT_NAME": "TRANSPORTER-15CZ", "OBJECT_ID": "2025-276CZ", "EPOCH": "2025-12-27T11:48:39.392640", "MEAN_MOTION": 15.18579988, "ECCENTRICITY": 0.0001753, "INCLINATION": 97.439, "RA_OF_ASC_NODE": 73.0343, "ARG_OF_PERICENTER": 120.5497, "MEAN_ANOMALY": 239.591, "EPHEMERIS_TYPE": 0, "CLASSIFICATION_TYPE": "U", "NORAD_CAT_ID": 66761, "ELEMENT_SET_NO": 999, "REV_AT_EPOCH": 436, "BSTAR": 0.00059536, "MEAN_MOTION_DOT": 0.00012252, "MEAN_MOTION_DDOT": 0}, "tle": {"line1": "1 66761U 25276CZ  25361.49212260  .00012252  00000+0  59536-3 0  9993", "line2": "2 66761  97.4390  73.0343 0001753 120.5497 239.5910 15.18579988  4367"}}, "geometry": {"type": "Point", "coordinates": [-106.86152205316547, -1.9330461521833584]}}, {"type": "Feature", "properties": {"norad_id": 66762, "name": "HYDROGNSS-1", "group": "last-30-days", "lat": 72.27020426628246, "lon": 49.22304480413223, "alt_km": 507.6404014918935, "timestamp": "2025-12-27T20:30:58.022294+00:00", "meta": {"OBJECT_NAME": "HYDROGNSS-1", "OBJECT_ID": "2025-276DA", "EPOCH": "2025-12-27T10:41:43.309824", "MEAN_MOTION": 15.1733652, "ECCENTRICITY": 0.0001169, "INCLINATION": 97.4403, "RA_OF_ASC_NODE": 72.9476, "ARG_OF_PERICENTER": 224.3442, "MEAN_ANOMALY": 135.7698, "EPHEMERIS_TYPE": 0, "CLASSIFICATION_TYPE": "U", "NORAD_CAT_ID": 66762, "ELEMENT_SET_NO": 999, "REV_AT_EPOCH": 435, "BSTAR": 0.00021275, "MEAN_MOTION_DOT": 4.178e-05, "MEAN_MOTION_DDOT": 0}, "tle": {"line1": "1 66762U 25276DA  25361.44564016  .00004178  00000+0  21275-3 0  9995", "line2": "2 66762  97.4403  72.9476 0001169 224.3442 135.7698 15.17336520  4353"}}, "geometry": {"type": "Point", "coordinates": [49.22304480413223, 72.27020426628246]}}, {"type": "Feature", "properties": {"norad_id": 66763, "name": "HYDROGNSS-2", "group": "last-30-days", "lat": 82.04645925521447, "lon": 4.064037687965346, "alt_km": 506.7244741657523, "timestamp": "2025-12-27T20:30:58.022305+00:00", "meta": {"OBJECT_NAME": "HYDROGNSS-2", "OBJECT_ID": "2025-276DB", "EPOCH": "2025-12-27T04:18:26.171712", "MEAN_MOTION": 15.17462602, "ECCENTRICITY": 0.00017232, "INCLINATION": 97.4407, "RA_OF_ASC_NODE": 72.6959, "ARG_OF_PERICENTER": 214.642, "MEAN_ANOMALY": 145.4701, "EPHEMERIS_TYPE": 0, "CLASSIFICATION_TYPE": "U", "NORAD_CAT_ID": 66763, "ELEMENT_SET_NO": 999, "REV_AT_EPOCH": 431, "BSTAR": 0.000225243, "MEAN_MOTION_DOT": 4.443e-05, "MEAN_MOTION_DDOT": 0}, "tle": {"line1": "1 66763U 25276DB  25361.17946958  .00004443  00000+0  22524-3 0  9998", "line2": "2 66763  97.4407  72.6959 0001723 214.6420 145.4701 15.17462602  4315"}}, "geometry": {"type": "Point", "coordinates": [4.064037687965346, 82.04645925521447]}}, {"type": "Feature", "properties": {"norad_id": 66764, "name": "TRANSPORTER-15DC", "group": "last-30-days", "lat": 63.21061829401177, "lon": -91.63535345264546, "alt_km": 505.7718537108858, "timestamp": "2025-12-27T20:30:58.022317+00:00", "meta": {"OBJECT_NAME": "TRANSPORTER-15DC", "OBJECT_ID": "2025-276DC", "EPOCH": "2025-12-27T10:30:49.693824", "MEAN_MOTION": 15.1772117, "ECCENTRICITY": 0.0002515, "INCLINATION": 97.4398, "RA_OF_ASC_NODE": 72.9556, "ARG_OF_PERICENTER": 179.3688, "MEAN_ANOMALY": 180.755, "EPHEMERIS_TYPE": 0, "CLASSIFICATION_TYPE": "U", "NORAD_CAT_ID": 66764, "ELEMENT_SET_NO": 999, "REV_AT_EPOCH": 435, "BSTAR": 0.00026784, "MEAN_MOTION_DOT": 5.336e-05, "MEAN_MOTION_DDOT": 0}, "tle": {"line1": "1 66764U 25276DC  25361.43807516  .00005336  00000+0  26784-3 0  9998", "line2": "2 66764  97.4398  72.9556 0002515 179.3688 180.7550 15.17721170  4350"}}, "geometry": {"type": "Point", "coordinates": [-91.63535345264546, 63.21061829401177]}}, {"type": "Feature", "properties": {"norad_id": 66765, "name": "TRANSPORTER-15DD", "group": "last-30-days", "lat": -24.77908465015505, "lon": -110.049606811385, "alt_km": 514.9940958072339, "timestamp": "2025-12-27T20:30:58.022327+00:00", "meta": {"OBJECT_NAME": "TRANSPORTER-15DD", "OBJECT_ID": "2025-276DD", "EPOCH": "2025-12-27T11:42:40.625280", "MEAN_MOTION": 15.18856699, "ECCENTRICITY": 0.0001989, "INCLINATION": 97.4415, "RA_OF_ASC_NODE": 73.0483, "ARG_OF_PERICENTER": 113.1636, "MEAN_ANOMALY": 246.9808, "EPHEMERIS_TYPE": 0, "CLASSIFICATION_TYPE": "U", "NORAD_CAT_ID": 66765, "ELEMENT_SET_NO": 999, "REV_AT_EPOCH": 436, "BSTAR": 0.00075434, "MEAN_MOTION_DOT": 0.00015674, "MEAN_MOTION_DDOT": 0}, "tle": {"line1": "1 66765U 25276DD  25361.48797020  .00015674  00000+0  75434-3 0  9994", "line2": "2 66765  97.4415  73.0483 0001989 113.1636 246.9808 15.18856699  4363"}}, "geometry": {"type": "Point", "coordinates": [-110.049606811385, -24.77908465015505]}}, {"type": "Feature", "properties": {"norad_id": 66766, "name": "TRANSPORTER-15DE", "group": "last-30-days", "lat": -3.685941397737336, "lon": -107.10318328217343, "alt_km": 514.1730001326641, "timestamp": "2025-12-27T20:30:58.022341+00:00", "meta": {"OBJECT_NAME": "TRANSPORTER-15DE", "OBJECT_ID": "2025-276DE", "EPOCH": "2025-12-27T11:48:09.504288", "MEAN_MOTION": 15.18479259, "ECCENTRICITY": 0.0001958, "INCLINATION": 97.4355, "RA_OF_ASC_NODE": 73.0219, "ARG_OF_PERICENTER": 86.0035, "MEAN_ANOMALY": 274.1423, "EPHEMERIS_TYPE": 0, "CLASSIFICATION_TYPE": "U", "NORAD_CAT_ID": 66766, "ELEMENT_SET_NO": 999, "REV_AT_EPOCH": 436, "BSTAR": 0.00057094, "MEAN_MOTION_DOT": 0.00011712, "MEAN_MOTION_DDOT": 0}, "tle": {"line1": "1 66766U 25276DE  25361.49177667  .00011712  00000+0  57094-3 0  9996", "line2": "2 66766  97.4355  73.0219 0001958  86.0035 274.1423 15.18479259  4360"}}, "geometry": {"type": "Point", "coordinates": [-107.10318328217343, -3.685941397737336]}}, {"type": "Feature", "properties": {"norad_id": 66767, "name": "TRANSPORTER-15DF", "group": "last-30-days", "lat": 2.4210652891357127, "lon": -106.3042099139529, "alt_km": 513.5924661856325, "timestamp": "2025-12-27T20:30:58.022352+00:00", "meta": {"OBJECT_NAME": "TRANSPORTER-15DF", "OBJECT_ID": "2025-276DF", "EPOCH": "2025-12-27T11:49:44.673024", "MEAN_MOTION": 15.18372293, "ECCENTRICITY": 0.0002045, "INCLINATION": 97.4365, "RA_OF_ASC_NODE": 73.0235, "ARG_OF_PERICENTER": 85.4875, "MEAN_ANOMALY": 274.6592, "EPHEMERIS_TYPE": 0, "CLASSIFICATION_TYPE": "U", "NORAD_CAT_ID": 66767, "ELEMENT_SET_NO": 999, "REV_AT_EPOCH": 436, "BSTAR": 0.00024956, "MEAN_MOTION_DOT": 5.062e-05, "MEAN_MOTION_DDOT": 0}, "tle": {"line1": "1 66767U 25276DF  25361.49287816  .00005062  00000+0  24956-3 0  9997", "line2": "2 66767  97.4365  73.0235 0002045  85.4875 274.6592 15.18372293  4365"}}, "geometry": {"type": "Point", "coordinates": [-106.3042099139529, 2.4210652891357127]}}]}